STARLINK-36847          
1 67910U 26036G   26061.16668981 -.01450012  00000+0 -58934-2 0  9995
2 67910  42.9952 295.9040 0001733 273.8915 267.2117 15.88130975  2436
STARLINK-36736          
1 67911U 26036H   26061.16668981 -.01451850  00000+0 -58509-2 0  9995
2 67911  42.9951 295.8959 0001712 276.7518 267.4798 15.88302776  2439
STARLINK-36676          
1 67912U 26036J   26061.16668981 -.01445023  00000+0 -57676-2 0  9995
2 67912  42.9952 295.8887 0001715 275.3283 271.8878 15.88478020  2432
STARLINK-36690          
1 67913U 26036K   26061.16668981 -.01442779  00000+0 -57125-2 0  9990
2 67913  42.9952 295.8805 0001752 273.9872 276.4409 15.88630904  2434
STARLINK-36724          
1 67914U 26036L   26061.16668981 -.01445442  00000+0 -56285-2 0  9997
2 67914  42.9950 295.8648 0001634 273.0320 283.4872 15.88964782  2432
STARLINK-36723          
1 67915U 26036M   26061.16668981 -.01439299  00000+0 -56524-2 0  9997
2 67915  42.9953 295.8724 0001807 274.9880 278.6407 15.88783167  2430
STARLINK-36721          
1 67916U 26036N   26061.16668981 -.01438620  00000+0 -55584-2 0  9990
2 67916  42.9954 295.8571 0001694 277.4082 282.3851 15.89102167  2439
STARLINK-36722          
1 67917U 26036P   26061.16668981 -.01435471  00000+0 -54977-2 0  9997
2 67917  42.9953 295.8494 0001821 271.2826 291.4868 15.89265400  2432
STARLINK-36341          
1 67918U 26036Q   26061.16668981 -.01440724  00000+0 -54302-2 0  9997
2 67918  42.9953 295.8342 0001818 270.6759 298.0653 15.89587970  2433
STARLINK-36663          
1 67919U 26036R   26061.16668981 -.01438931  00000+0 -54676-2 0  9999
2 67919  42.9955 295.8420 0001729 273.2860 292.4758 15.89427891  2435
STARLINK-36375          
1 67920U 26036S   26061.16668981 -.01424845  00000+0 -53231-2 0  9996
2 67920  42.9954 295.8266 0001787 275.3793 296.4436 15.89727519  2433
STARLINK-36405          
1 67921U 26036T   26061.16668981 -.01433548  00000+0 -53135-2 0  9990
2 67921  42.9955 295.8196 0001746 272.4448 302.1929 15.89899086  2438
STARLINK-36383          
1 67922U 26036U   26061.16668981 -.01411644  00000+0 -51840-2 0  9995
2 67922  42.9956 295.8118 0001875 273.3886 304.3374 15.90032071  2436
STARLINK-36406          
1 67923U 26036V   26061.16668981 -.01415379  00000+0 -51578-2 0  9993
2 67923  42.9956 295.8046 0001781 273.8695 306.7274 15.90190088  2434
STARLINK-36714          
1 67924U 26036W   26061.16668981 -.01419482  00000+0 -51321-2 0  9999
2 67924  42.9957 295.7974 0001775 275.1788 308.2549 15.90350581  2434
STARLINK-36726          
1 67925U 26036X   26061.16668981 -.01417548  00000+0 -50808-2 0  9990
2 67925  42.9956 295.7906 0001822 273.2797 312.8181 15.90513309  2433
