[{"OBJECT_NAME":"STARLINK-36847","OBJECT_ID":"2026-036G","EPOCH":"2026-03-02T04:00:01.999584","MEAN_MOTION":15.88130975,"ECCENTRICITY":0.0001733,"INCLINATION":42.9952,"RA_OF_ASC_NODE":295.904,"ARG_OF_PERICENTER":273.8915,"MEAN_ANOMALY":267.2117,"EPHEMERIS_TYPE":0,"CLASSIFICATION_TYPE":"U","NORAD_CAT_ID":67910,"ELEMENT_SET_NO":999,"REV_AT_EPOCH":243,"BSTAR":-0.0058934,"MEAN_MOTION_DOT":-0.01450012,"MEAN_MOTION_DDOT":0},{"OBJECT_NAME":"STARLINK-36736","OBJECT_ID":"2026-036H","EPOCH":"2026-03-02T04:00:01.999584","MEAN_MOTION":15.88302776,"ECCENTRICITY":0.0001712,"INCLINATION":42.9951,"RA_OF_ASC_NODE":295.8959,"ARG_OF_PERICENTER":276.7518,"MEAN_ANOMALY":267.4798,"EPHEMERIS_TYPE":0,"CLASSIFICATION_TYPE":"U","NORAD_CAT_ID":67911,"ELEMENT_SET_NO":999,"REV_AT_EPOCH":243,"BSTAR":-0.0058509,"MEAN_MOTION_DOT":-0.0145185,"MEAN_MOTION_DDOT":0},{"OBJECT_NAME":"STARLINK-36676","OBJECT_ID":"2026-036J","EPOCH":"2026-03-02T04:00:01.999584","MEAN_MOTION":15.8847802,"ECCENTRICITY":0.0001715,"INCLINATION":42.9952,"RA_OF_ASC_NODE":295.8887,"ARG_OF_PERICENTER":275.3283,"MEAN_ANOMALY":271.8878,"EPHEMERIS_TYPE":0,"CLASSIFICATION_TYPE":"U","NORAD_CAT_ID":67912,"ELEMENT_SET_NO":999,"REV_AT_EPOCH":243,"BSTAR":-0.0057676,"MEAN_MOTION_DOT":-0.01445023,"MEAN_MOTION_DDOT":0},{"OBJECT_NAME":"STARLINK-36690","OBJECT_ID":"2026-036K","EPOCH":"2026-03-02T04:00:01.999584","MEAN_MOTION":15.88630904,"ECCENTRICITY":0.0001752,"INCLINATION":42.9952,"RA_OF_ASC_NODE":295.8805,"ARG_OF_PERICENTER":273.9872,"MEAN_ANOMALY":276.4409,"EPHEMERIS_TYPE":0,"CLASSIFICATION_TYPE":"U","NORAD_CAT_ID":67913,"ELEMENT_SET_NO":999,"REV_AT_EPOCH":243,"BSTAR":-0.0057125,"MEAN_MOTION_DOT":-0.01442779,"MEAN_MOTION_DDOT":0},{"OBJECT_NAME":"STARLINK-36724","OBJECT_ID":"2026-036L","EPOCH":"2026-03-02T04:00:01.999584","MEAN_MOTION":15.88964782,"ECCENTRICITY":0.0001634,"INCLINATION":42.995,"RA_OF_ASC_NODE":295.8648,"ARG_OF_PERICENTER":273.032,"MEAN_ANOMALY":283.4872,"EPHEMERIS_TYPE":0,"CLASSIFICATION_TYPE":"U","NORAD_CAT_ID":67914,"ELEMENT_SET_NO":999,"REV_AT_EPOCH":243,"BSTAR":-0.0056285,"MEAN_MOTION_DOT":-0.01445442,"MEAN_MOTION_DDOT":0},{"OBJECT_NAME":"STARLINK-36723","OBJECT_ID":"2026-036M","EPOCH":"2026-03-02T04:00:01.999584","MEAN_MOTION":15.88783167,"ECCENTRICITY":0.0001807,"INCLINATION":42.9953,"RA_OF_ASC_NODE":295.8724,"ARG_OF_PERICENTER":274.988,"MEAN_ANOMALY":278.6407,"EPHEMERIS_TYPE":0,"CLASSIFICATION_TYPE":"U","NORAD_CAT_ID":67915,"ELEMENT_SET_NO":999,"REV_AT_EPOCH":243,"BSTAR":-0.0056524,"MEAN_MOTION_DOT":-0.01439299,"MEAN_MOTION_DDOT":0},{"OBJECT_NAME":"STARLINK-36721","OBJECT_ID":"2026-036N","EPOCH":"2026-03-02T04:00:01.999584","MEAN_MOTION":15.89102167,"ECCENTRICITY":0.0001694,"INCLINATION":42.9954,"RA_OF_ASC_NODE":295.8571,"ARG_OF_PERICENTER":277.4082,"MEAN_ANOMALY":282.3851,"EPHEMERIS_TYPE":0,"CLASSIFICATION_TYPE":"U","NORAD_CAT_ID":67916,"ELEMENT_SET_NO":999,"REV_AT_EPOCH":243,"BSTAR":-0.0055584,"MEAN_MOTION_DOT":-0.0143862,"MEAN_MOTION_DDOT":0},{"OBJECT_NAME":"STARLINK-36722","OBJECT_ID":"2026-036P","EPOCH":"2026-03-02T04:00:01.999584","MEAN_MOTION":15.892654,"ECCENTRICITY":0.0001821,"INCLINATION":42.9953,"RA_OF_ASC_NODE":295.8494,"ARG_OF_PERICENTER":271.2826,"MEAN_ANOMALY":291.4868,"EPHEMERIS_TYPE":0,"CLASSIFICATION_TYPE":"U","NORAD_CAT_ID":67917,"ELEMENT_SET_NO":999,"REV_AT_EPOCH":243,"BSTAR":-0.0054977,"MEAN_MOTION_DOT":-0.01435471,"MEAN_MOTION_DDOT":0},{"OBJECT_NAME":"STARLINK-36341","OBJECT_ID":"2026-036Q","EPOCH":"2026-03-02T04:00:01.999584","MEAN_MOTION":15.8958797,"ECCENTRICITY":0.0001818,"INCLINATION":42.9953,"RA_OF_ASC_NODE":295.8342,"ARG_OF_PERICENTER":270.6759,"MEAN_ANOMALY":298.0653,"EPHEMERIS_TYPE":0,"CLASSIFICATION_TYPE":"U","NORAD_CAT_ID":67918,"ELEMENT_SET_NO":999,"REV_AT_EPOCH":243,"BSTAR":-0.0054302,"MEAN_MOTION_DOT":-0.01440724,"MEAN_MOTION_DDOT":0},{"OBJECT_NAME":"STARLINK-36663","OBJECT_ID":"2026-036R","EPOCH":"2026-03-02T04:00:01.999584","MEAN_MOTION":15.89427891,"ECCENTRICITY":0.0001729,"INCLINATION":42.9955,"RA_OF_ASC_NODE":295.842,"ARG_OF_PERICENTER":273.286,"MEAN_ANOMALY":292.4758,"EPHEMERIS_TYPE":0,"CLASSIFICATION_TYPE":"U","NORAD_CAT_ID":67919,"ELEMENT_SET_NO":999,"REV_AT_EPOCH":243,"BSTAR":-0.0054676,"MEAN_MOTION_DOT":-0.01438931,"MEAN_MOTION_DDOT":0},{"OBJECT_NAME":"STARLINK-36375","OBJECT_ID":"2026-036S","EPOCH":"2026-03-02T04:00:01.999584","MEAN_MOTION":15.89727519,"ECCENTRICITY":0.0001787,"INCLINATION":42.9954,"RA_OF_ASC_NODE":295.8266,"ARG_OF_PERICENTER":275.3793,"MEAN_ANOMALY":296.4436,"EPHEMERIS_TYPE":0,"CLASSIFICATION_TYPE":"U","NORAD_CAT_ID":67920,"ELEMENT_SET_NO":999,"REV_AT_EPOCH":243,"BSTAR":-0.0053231,"MEAN_MOTION_DOT":-0.01424845,"MEAN_MOTION_DDOT":0},{"OBJECT_NAME":"STARLINK-36405","OBJECT_ID":"2026-036T","EPOCH":"2026-03-02T04:00:01.999584","MEAN_MOTION":15.89899086,"ECCENTRICITY":0.0001746,"INCLINATION":42.9955,"RA_OF_ASC_NODE":295.8196,"ARG_OF_PERICENTER":272.4448,"MEAN_ANOMALY":302.1929,"EPHEMERIS_TYPE":0,"CLASSIFICATION_TYPE":"U","NORAD_CAT_ID":67921,"ELEMENT_SET_NO":999,"REV_AT_EPOCH":243,"BSTAR":-0.0053135,"MEAN_MOTION_DOT":-0.01433548,"MEAN_MOTION_DDOT":0},{"OBJECT_NAME":"STARLINK-36383","OBJECT_ID":"2026-036U","EPOCH":"2026-03-02T04:00:01.999584","MEAN_MOTION":15.90032071,"ECCENTRICITY":0.0001875,"INCLINATION":42.9956,"RA_OF_ASC_NODE":295.8118,"ARG_OF_PERICENTER":273.3886,"MEAN_ANOMALY":304.3374,"EPHEMERIS_TYPE":0,"CLASSIFICATION_TYPE":"U","NORAD_CAT_ID":67922,"ELEMENT_SET_NO":999,"REV_AT_EPOCH":243,"BSTAR":-0.005184,"MEAN_MOTION_DOT":-0.01411644,"MEAN_MOTION_DDOT":0},{"OBJECT_NAME":"STARLINK-36406","OBJECT_ID":"2026-036V","EPOCH":"2026-03-02T04:00:01.999584","MEAN_MOTION":15.90190088,"ECCENTRICITY":0.0001781,"INCLINATION":42.9956,"RA_OF_ASC_NODE":295.8046,"ARG_OF_PERICENTER":273.8695,"MEAN_ANOMALY":306.7274,"EPHEMERIS_TYPE":0,"CLASSIFICATION_TYPE":"U","NORAD_CAT_ID":67923,"ELEMENT_SET_NO":999,"REV_AT_EPOCH":243,"BSTAR":-0.0051578,"MEAN_MOTION_DOT":-0.01415379,"MEAN_MOTION_DDOT":0},{"OBJECT_NAME":"STARLINK-36714","OBJECT_ID":"2026-036W","EPOCH":"2026-03-02T04:00:01.999584","MEAN_MOTION":15.90350581,"ECCENTRICITY":0.0001775,"INCLINATION":42.9957,"RA_OF_ASC_NODE":295.7974,"ARG_OF_PERICENTER":275.1788,"MEAN_ANOMALY":308.2549,"EPHEMERIS_TYPE":0,"CLASSIFICATION_TYPE":"U","NORAD_CAT_ID":67924,"ELEMENT_SET_NO":999,"REV_AT_EPOCH":243,"BSTAR":-0.0051321,"MEAN_MOTION_DOT":-0.01419482,"MEAN_MOTION_DDOT":0},{"OBJECT_NAME":"STARLINK-36726","OBJECT_ID":"2026-036X","EPOCH":"2026-03-02T04:00:01.999584","MEAN_MOTION":15.90513309,"ECCENTRICITY":0.0001822,"INCLINATION":42.9956,"RA_OF_ASC_NODE":295.7906,"ARG_OF_PERICENTER":273.2797,"MEAN_ANOMALY":312.8181,"EPHEMERIS_TYPE":0,"CLASSIFICATION_TYPE":"U","NORAD_CAT_ID":67925,"ELEMENT_SET_NO":999,"REV_AT_EPOCH":243,"BSTAR":-0.0050808,"MEAN_MOTION_DOT":-0.01417548,"MEAN_MOTION_DDOT":0}]
